[{"OBJECT_NAME":"SCS-01 M","OBJECT_ID":"2025-100M","EPOCH":"2026-03-09T23:50:15.541152","MEAN_MOTION":15.31880861,"ECCENTRICITY":0.00078021,"INCLINATION":97.3725,"RA_OF_ASC_NODE":145.6908,"ARG_OF_PERICENTER":292.3826,"MEAN_ANOMALY":67.6588,"EPHEMERIS_TYPE":0,"CLASSIFICATION_TYPE":"U","NORAD_CAT_ID":63993,"ELEMENT_SET_NO":999,"REV_AT_EPOCH":4565,"BSTAR":0.0012010051,"MEAN_MOTION_DOT":0.00037061,"MEAN_MOTION_DDOT":0},{"OBJECT_NAME":"STARLINK-34908","OBJECT_ID":"2025-189G","EPOCH":"2026-03-09T16:02:39.359040","MEAN_MOTION":15.3019194,"ECCENTRICITY":0.0001095,"INCLINATION":53.1577,"RA_OF_ASC_NODE":206.8337,"ARG_OF_PERICENTER":85.1527,"MEAN_ANOMALY":274.9599,"EPHEMERIS_TYPE":0,"CLASSIFICATION_TYPE":"U","NORAD_CAT_ID":65329,"ELEMENT_SET_NO":999,"REV_AT_EPOCH":3110,"BSTAR":0.00094806723,"MEAN_MOTION_DOT":0.00027818,"MEAN_MOTION_DDOT":0}]
